EOSSAT-1                
1 55053U 23001AW  26068.73619225  .00007695  00000+0  24844-3 0  9992
2 55053  97.3357 130.2294 0011263 110.3168 249.9285 15.32339828176689
STARLINK-32268          
1 60372U 24138T   26068.88691969 -.00004669  00000+0 -14555-3 0  9993
2 60372  53.1601 308.9853 0001000  81.4408 278.6706 15.30215525 90653
